CALSPHERE 1             
1 00900U 64063C   20035.10842014  .00000225  00000-0  23178-3 0  9991
2 00900  90.1501  26.2190 0029214  99.0563  17.8286 13.73327194752014
CALSPHERE 2             
1 00902U 64063E   20034.75017424  .00000045  00000-0  54166-4 0  9994
2 00902  90.1587  28.7939 0019687 133.4612 351.3774 13.52679909541878
LCS 1                   
1 01361U 65034C   20034.73773094  .00000018  00000-0  12282-2 0  9994
2 01361  32.1421 298.4135 0005442 332.6675  27.3535  9.89296622979581
TEMPSAT 1               
1 01512U 65065E   20034.78857876  .00000026  00000-0  35216-4 0  9995
2 01512  89.8638 227.7807 0068150 299.0737  71.4866 13.33426729650141
CALSPHERE 4(A)          
1 01520U 65065H   20034.82891628  .00000027  00000-0  34319-4 0  9996
2 01520  90.0436 128.6427 0070848 180.3117 290.8002 13.35806402652220
OPS 5712 (P/L 160)      
1 02826U 67053A   20035.08503557  .00000425  00000-0  12824-3 0  9993
2 02826  69.9284 153.3905 0004294 162.6129 197.5152 14.48957907727976
OPS 5712 (P/L 153)      
1 02874U 67053H   20034.81709127 -.00000030  00000-0  16813-4 0  9993
2 02874  69.9735  57.0136 0009124 316.1845  43.8535 13.96342553682160
SURCAL 150B             
1 02909U 67053J   20035.01404381  .00000650  00000-0  14441-3 0  9990
2 02909  69.9474 183.1824 0005849 217.0713 143.0024 14.61583067737737
RIGIDSPHERE 2 (LCS 4)   
1 05398U 71067E   20034.97855518  .00000140  00000-0  42980-4 0  9995
2 05398  87.6199 261.2431 0063341 358.1735   1.9220 14.33856569540604
